STARLINK-4350           
1 53045U 22077C   22202.25001157  .00030964  00000+0  25598-3 0  9997
2 53045  97.6574  20.7503 0001614  82.8332 184.2856 15.70247875  2194
STARLINK-4331           
1 53046U 22077D   22202.16667824 -.00086036  00000+0 -71798-3 0  9993
2 53046  97.6562  20.6575 0000976  87.9980  68.7697 15.70218352  2170
STARLINK-4352           
1 53047U 22077E   22202.25001157 -.00059768  00000+0 -49489-3 0  9999
2 53047  97.6569  20.7518 0001772  86.0424 182.7874 15.70313238  2199
STARLINK-4355           
1 53048U 22077F   22202.16667824 -.00116529  00000+0 -97161-3 0  9998
2 53048  97.6560  20.6580 0001562  83.8977  73.5896 15.70334482  2177
STARLINK-4345           
1 53049U 22077G   22201.91668981 -.00030568  00000+0 -25196-3 0  9993
2 53049  97.6571  20.3863 0001295  85.0463 102.6087 15.70289975  1551
STARLINK-4343           
1 53050U 22077H   22202.16667824 -.00058057  00000+0 -48135-3 0  9999
2 53050  97.6577  20.6594 0001334  81.8493  76.8693 15.70276584  2170
STARLINK-4336           
1 53051U 22077J   22202.25001157  .00031701  00000+0  26213-3 0  9999
2 53051  97.6575  20.7532 0001721  80.2584 191.6073 15.70238053  2195
STARLINK-4341           
1 53052U 22077K   22202.16667824 -.00019962  00000+0 -16429-3 0  9994
2 53052  97.6558  20.6600 0001559  83.6270  75.6043 15.70239859  2171
STARLINK-4337           
1 53053U 22077L   22202.16667824 -.00064834  00000+0 -53722-3 0  9990
2 53053  97.6571  20.6627 0001485  83.6296  78.6257 15.70315813  2177
STARLINK-4339           
1 53054U 22077M   22202.16667824 -.00018395  00000+0 -15110-3 0  9991
2 53054  97.6576  20.6609 0001396  81.4189  79.0185 15.70268155  2172
STARLINK-4338           
1 53055U 22077N   22202.16667824 -.00020007  00000+0 -16432-3 0  9993
2 53055  97.6570  20.6626 0001455  86.0392  77.3665 15.70290836  2174
STARLINK-4314           
1 53056U 22077P   22202.25001157  .00005239  00000+0  44318-4 0  9998
2 53056  97.6573  20.7528 0001599  83.6908 188.7898 15.70263817  2191
STARLINK-4252           
1 53057U 22077Q   22202.16667824 -.00115024  00000+0 -95923-3 0  9991
2 53057  97.6569  20.6630 0001456  87.8368  76.7891 15.70325822  2170
STARLINK-4317           
1 53058U 22077R   22202.16667824 -.00063021  00000+0 -52189-3 0  9998
2 53058  97.6566  20.6617 0001735  77.7317  85.1051 15.70322688  1599
STARLINK-4320           
1 53059U 22077S   22202.16667824 -.00124476  00000+0 -10386-2 0  9993
2 53059  97.6573  20.6640 0001443  81.6362  84.1509 15.70342311  2171
STARLINK-4305           
1 53060U 22077T   22201.91668981  .00025787  00000+0  21341-3 0  9999
2 53060  97.6565  20.3887 0001528  90.2385 101.5933 15.70257494  2137
STARLINK-4308           
1 53061U 22077U   22201.91668981 -.00003982  00000+0 -31832-4 0  9992
2 53061  97.6572  20.3910 0001233  94.6297 100.1992 15.70246207  2136
STARLINK-4311           
1 53062U 22077V   22202.16667824 -.00082441  00000+0 -68478-3 0  9998
2 53062  97.6570  20.6636 0001550  84.8292  80.3829 15.70317497  2173
STARLINK-4307           
1 53063U 22077W   22202.16667824 -.00015706  00000+0 -12867-3 0  9990
2 53063  97.6576  20.6665 0001718  82.5124  85.6973 15.70295034  2177
STARLINK-4313           
1 53064U 22077X   22202.25001157  .00032640  00000+0  26964-3 0  9999
2 53064  97.6572  20.7558 0001319  77.6611 199.5420 15.70255414  2191
STARLINK-4312           
1 53065U 22077Y   22202.16667824 -.00025818  00000+0 -21244-3 0  9996
2 53065  97.6572  20.6658 0001380  85.4402  83.3756 15.70298336  2175
STARLINK-4309           
1 53066U 22077Z   22202.16667824 -.00081308  00000+0 -67507-3 0  9995
2 53066  97.6570  20.6656 0001585  95.9035  71.7166 15.70324328  2174
STARLINK-4306           
1 53067U 22077AA  22202.16667824 -.00091282  00000+0 -75931-3 0  9998
2 53067  97.6561  20.6672 0001459  68.4953 102.1628 15.70312112  2177
STARLINK-4325           
1 53068U 22077AB  22201.91668981  .00024939  00000+0  20679-3 0  9998
2 53068  97.6574  20.3911 0001254  86.9532 110.3184 15.70217790  2136
STARLINK-4323           
1 53069U 22077AC  22202.16667824 -.00062739  00000+0 -51969-3 0  9990
2 53069  97.6574  20.6671 0001622  89.2335  82.5368 15.70315665  2177
STARLINK-4342           
1 53070U 22077AD  22202.16667824 -.00052648  00000+0 -43554-3 0  9991
2 53070  97.6577  20.6670 0001507  79.6903  90.3572 15.70308479  2176
STARLINK-4328           
1 53071U 22077AE  22202.16667824 -.00113105  00000+0 -94426-3 0  9992
2 53071  97.6575  20.6687 0001385  80.9961  92.0199 15.70293722  2174
STARLINK-4344           
1 53072U 22077AF  22201.91668981  .00038276  00000+0  31579-3 0  9993
2 53072  97.6555  20.3916 0001166  86.8821 112.1200 15.70256590  2137
STARLINK-4346           
1 53073U 22077AG  22202.25001157  .00031539  00000+0  26067-3 0  9999
2 53073  97.6566  20.7609 0001400  84.2093 200.7433 15.70250558  2193
STARLINK-4310           
1 53074U 22077AH  22201.91668981  .00017127  00000+0  14211-3 0  9991
2 53074  97.6577  20.3924 0001344  97.4959 102.5043 15.70282383  2137
STARLINK-4348           
1 53075U 22077AJ  22202.25001157 -.00000778  00000+0 -53317-5 0  9994
2 53075  97.6555  20.7500 0001329  88.6155 197.4279 15.70277193  2194
STARLINK-4347           
1 53076U 22077AK  22202.16667824 -.00144208  00000+0 -12095-2 0  9996
2 53076  97.6559  20.6681 0001587  81.7288  91.9234 15.70276393  2173
STARLINK-4315           
1 53077U 22077AL  22202.25001157  .00030715  00000+0  25392-3 0  9998
2 53077  97.6576  20.7623 0001279  82.2246 205.1477 15.70249981  2191
STARLINK-4322           
1 53078U 22077AM  22202.16667824 -.00114767  00000+0 -95722-3 0  9994
2 53078  97.6578  20.6697 0001661  81.3752  93.4700 15.70320974  2178
STARLINK-4327           
1 53079U 22077AN  22202.25001157  .00030814  00000+0  25481-3 0  9999
2 53079  97.6554  20.7616 0001402  79.9581 208.0498 15.70242370  2194
STARLINK-4330           
1 53080U 22077AP  22202.16667824 -.00086793  00000+0 -72198-3 0  9996
2 53080  97.6579  20.6699 0001295  69.2609 106.7535 15.70297596  2170
STARLINK-4326           
1 53081U 22077AQ  22202.16667824 -.00049167  00000+0 -40663-3 0  9993
2 53081  97.6564  20.6714 0001432  88.2005  90.1833 15.70301316  2170
STARLINK-4321           
1 53082U 22077AR  22202.16667824 -.00112803  00000+0 -94040-3 0  9990
2 53082  97.6577  20.6705 0001624  85.5163  92.2277 15.70326434  2176
STARLINK-4251           
1 53083U 22077AS  22202.25001157 -.00089246  00000+0 -74115-3 0  9997
2 53083  97.6581  20.7735 0001530  68.3994 240.1118 15.70344983  2192
STARLINK-4319           
1 53084U 22077AT  22201.91668981 -.00006406  00000+0 -51873-4 0  9998
2 53084  97.6569  20.3962 0001450 101.8917 104.8441 15.70252899  2139
STARLINK-4324           
1 53085U 22077AU  22201.91668981  .00083653  00000+0  68584-3 0  9992
2 53085  97.6566  20.3982 0001579  84.5470 124.0120 15.70232000  1300
STARLINK-4318           
1 53086U 22077AV  22202.25001157 -.00004764  00000+0 -38352-4 0  9996
2 53086  97.6554  20.7627 0001445  86.9254 203.9888 15.70213327  2193
STARLINK-4329           
1 53087U 22077AW  22202.25001157  .00017322  00000+0  14376-3 0  9998
2 53087  97.6567  20.7657 0001407  82.5770 210.1581 15.70274253  2199
STARLINK-4333           
1 53088U 22077AX  22202.16667824 -.00115729  00000+0 -96649-3 0  9993
2 53088  97.6566  20.6728 0001422  82.9458  98.3871 15.70293774  2176
FALCON 9 DEB            
1 53089U 22077AY  22201.82116191  .00160210  11398-4  58329-3 0  9995
2 53089  97.6748  20.4607 0008907 221.7641 138.2951 15.88429220  1555
FALCON 9 DEB            
1 53090U 22077AZ  22201.81863290  .00170364  12647-4  60521-3 0  9991
2 53090  97.6736  20.4626 0007273 206.7898 153.2999 15.88941609  1556
FALCON 9 DEB            
1 53091U 22077BA  22201.81189820  .00191235  15545-4  63483-3 0  9992
2 53091  97.6707  20.4662 0012052 205.4661 154.6019 15.90202238  1559
FALCON 9 DEB            
1 53092U 22077BB  22201.80995208  .00183690  14556-4  60146-3 0  9997
2 53092  97.6704  20.4673 0011888 190.5325 169.5700 15.90480099  1551
TIANLIAN 2-03           
1 53100U 22078A   22194.13372968 -.00179803 -28039-6 -12696-1 0  9999
2 53100  27.1659 175.2503 7307002 174.6584 353.4153  2.27743757    17
CZ-3B R/B               
1 53101U 22078B   22201.93407821  .00044145 -71839-8  10812-2 0  9999
2 53101  27.1270 172.5922 7243021 178.8734 185.1208  2.37450896   207
LARES-2                 
1 53105U 22080A   22200.94588217 -.00000020  00000+0  00000+0 0  9997
2 53105  70.1483  75.1664 0005826 285.6930  74.3259  6.38965264   416
2022-080B               
1 53106U 22080B   22200.91061454 -.00000003  00000+0  00000+0 0  9995
2 53106  70.1487  75.1736 0007916 271.0195  89.0023  6.42551663   405
2022-080C               
1 53107U 22080C   22200.91487036 -.00000003  00000+0  00000+0 0  9994
2 53107  70.1605  75.1743 0011727 251.6089 108.1541  6.42111202   316
2022-080D               
1 53108U 22080D   22200.29161985 -.00000003  00000+0  00000+0 0  9998
2 53108  70.0017  75.4272 0015432 250.6917 109.4018  6.42150429   271
2022-080E               
1 53109U 22080E   22201.22158029 -.00000003  00000+0  00000+0 0  9998
2 53109  70.1365  74.8711 0009063 242.2102 117.7683  6.42583686   316
2022-080F               
1 53110U 22080F   22201.22227875 -.00000003  00000+0  00000+0 0  9996
2 53110  70.1719  75.0612 0034368 140.4248 219.5900  6.42511669   315
2022-080G               
1 53111U 22080G   22201.22212397 -.00000003  00000+0  00000+0 0  9990
2 53111  70.1472  75.0842 0008017 230.7865 129.1755  6.42529879   302
2022-080H               
1 53112U 22080H   22197.22866146 -.00000003  00000+0  00000+0 0  9992
2 53112  70.1463  76.4508 0010840 259.7188 224.1212  6.42613720    58
DRAGON CRS-25           
1 53113U 22081A   22201.40857775  .00008240  00000+0  15195-3 0  9993
2 53113  51.6419 172.0419 0005020  30.4744  71.6173 15.50043356350335
